82P/Gehrels,e,1.1283,239.3127,227.1591,4.140783,0.1169716,0.12234200,16.8012,11/19.0/2018,2000,g  5.0,8.0
# From MPC105241
84P/Giclas,e,7.5230,108.2867,281.0719,3.562952,0.1465511,0.51600077,277.6423,11/19.0/2018,2000,g  9.5,8.0
# From MPC 79347
86P/Wild,e,15.4773,72.3811,179.2418,3.605355,0.1439733,0.37261655,190.6961,11/19.0/2018,2000,g 11.0,6.0
# From MPC105241
87P/Bus,e,2.6021,181.8735,24.8611,3.439851,0.1544879,0.38943716,277.0300,11/19.0/2018,2000,g  7.2,10.0
# From MPC105241
88P/Howell,e,4.3836,56.6965,235.8683,3.106297,0.1800278,0.56394509,237.9997,11/19.0/2018,2000,g 11.0,6.0
# From MPC 10028
89P/Russell,e,12.0754,41.4414,250.1927,3.753552,0.1355316,0.40847333,95.4224,11/19.0/2018,2000,g 11.5,6.0
# From MPC107051
90P/Gehrels,e,9.6353,13.2385,29.2127,6.062477,0.0660281,0.50943585,34.2033,11/19.0/2018,2000,g  8.5,6.0
# From MPC105241
91P/Russell,e,14.0915,247.8324,354.6580,3.893257,0.1283023,0.33061494,267.5015,11/19.0/2018,2000,g  7.5,6.0
# From MPC 88331
92P/Sanguin,e,19.4537,181.4303,163.7013,5.348565,0.0796798,0.65958378,108.2645,11/19.0/2018,2000,g 12.0,6.0
# From NK 2707
93P/Lovas,e,12.2005,339.6188,74.9258,4.387467,0.1072466,0.61220640,67.3199,11/19.0/2018,2000,g  9.5,6.0
# From MPC 84320
94P/Russell,e,6.1880,70.8635,92.5846,3.507414,0.1500457,0.36477300,112.9815,11/19.0/2018,2000,g  9.0,6.0
# From MPC 75717
95P/Chiron,e,6.9482,209.2079,339.7893,13.66298,0.0195158,0.38101985,162.0016,11/19.0/2018,2000,g  6.3,2.0
# From MPC106348
96P/Machholz,e,58.2278,94.2568,14.7737,3.034195,0.1864828,0.95924268,72.1755,11/19.0/2018,2000,g 13.0,4.8
# From MPC 77020
97P/Metcalf-Brewington,e,17.8460,185.0403,228.2757,4.797476,0.0937961,0.45859892,248.8129,11/19.0/2018,2000,g  5.5,6.0
# From MPC 83523
98P/Takamizawa,e,10.5585,114.7054,157.8513,3.801583,0.1329711,0.56199879,256.5567,11/19.0/2018,2000,g  9.0,8.0
# From MPC 75718
99P/Kowal,e,4.3380,28.1619,174.7082,6.120284,0.0650949,0.23097942,279.3784,11/19.0/2018,2000,g  4.5,6.0
# From MPC 84321
100P/Hartley,e,25.5866,37.7235,181.9735,3.430312,0.1551328,0.41318824,149.0555,11/19.0/2018,2000,g  9.0,8.0
# From MPC105241
101P/Chernykh,e,5.0526,116.1862,277.7237,5.795557,0.0706417,0.59524215,330.2887,11/19.0/2018,2000,g 10.0,4.8
# From MPC 86232
102P/Shoemaker,e,25.8843,339.5216,20.6308,3.809322,0.1325661,0.45798643,254.5136,11/19.0/2018,2000,g  6.5,8.0
# From MPC110085
103P/Hartley,e,13.5931,219.7246,181.3300,3.477548,0.1519828,0.69305412,87.7994,11/19.0/2018,2000,g  8.5,8.0
# From MPC 10028
104P/Kowal,e,10.4224,235.3620,200.2412,3.234173,0.1694569,0.65380958,161.8626,11/19.0/2018,2000,g 16.0,4.0
# From MPC109147
105P/Singer Brewster,e,9.1747,192.4248,46.4631,3.467379,0.1526518,0.41037009,15.3762,11/19.0/2018,2000,g 11.5,6.0
# From MPC 92276
106P/Schuster,e,20.2295,49.6434,353.8171,3.732221,0.1366951,0.60241766,223.2029,11/19.0/2018,2000,g 14.0,4.8
# From MPC 94676
107P/Wilson-Harrington,e,2.7981,266.8152,95.4045,2.627001,0.2314801,0.63082045,41.5443,11/19.0/2018,2000,g 16.0,2.0
# From MPC 89313
108P/Ciffreo,e,12.5216,52.0437,354.4437,3.675984,0.1398439,0.57744369,217.9310,11/19.0/2018,2000,g  8.0,12.0
# From ICA 105, 420
109P/Swift-Tuttle,e,113.5911,139.3547,152.9177,26.08367,0.0073986,0.96357822,70.1831,11/19.0/2018,2000,g  4.5,6.0
# From MPC 91618
110P/Hartley,e,11.7029,287.5275,167.3735,3.603382,0.1440916,0.31671480,206.4966,11/19.0/2018,2000,g  1.0,12.0
# From MPC 75718
111P/Helin-Roman-Crockett,e,4.2276,89.7640,1.5593,4.141156,0.1169558,0.10522268,249.6389,11/19.0/2018,2000,g  5.0,8.0
# From MPC105241
112P/Urata-Niijima,e,24.1926,31.8712,21.4370,3.526736,0.1488143,0.58948681,293.6291,11/19.0/2018,2000,g 14.0,6.0
# From MPC 92984
113P/Spitaler,e,4.2687,352.9198,70.9283,3.591648,0.1447983,0.47343032,180.8131,11/19.0/2018,2000,g 13.5,4.0
# From MPC105241
114P/Wiseman-Skiff,e,18.2728,271.0616,172.8322,3.545664,0.1476242,0.55457007,297.8280,11/19.0/2018,2000,g 11.5,6.0
# From MPC105241
115P/Maury,e,11.6749,176.0394,121.0477,4.271580,0.1116404,0.51842647,290.8926,11/19.0/2018,2000,g 10.5,6.0
# From MPC106348
116P/Wild,e,3.6066,21.0004,173.4033,3.486351,0.1514075,0.37167900,157.8594,11/19.0/2018,2000,g  2.5,10.0
# From MPC 95735
117P/Helin-Roman-Alu,e,8.7015,58.8752,222.5272,4.090497,0.1191352,0.25524221,202.0956,11/19.0/2018,2000,g  2.5,8.0
# From MPC 95735
118P/Shoemaker-Levy,e,8.5017,150.3146,303.5925,3.458809,0.1532196,0.43512054,134.8200,11/19.0/2018,2000,g 12.0,4.0
# From MPC 84628
119P/Parker-Hartley,e,5.8085,240.5451,180.8998,4.105346,0.1184894,0.35048802,194.0252,11/19.0/2018,2000,g  3.5,8.0
# From MPC 80901
120P/Mueller,e,8.5106,0.7786,32.8445,4.009293,0.1227729,0.37418514,250.0567,11/19.0/2018,2000,g 12.0,4.0
# From MPC 10028
121P/Shoemaker-Holt,e,20.1637,94.1417,11.2771,4.590536,0.1002095,0.18358278,191.1909,11/19.0/2018,2000,g  6.5,8.0
# From MPC 75718
122P/de Vico,e,84.5798,79.5029,13.0407,17.64831,0.0132938,0.96242071,112.3322,11/19.0/2018,2000,g  7.5,5.2
# From MPC102101
123P/West-Hartley,e,15.3596,46.4996,103.0050,3.857923,0.1300690,0.44869553,349.8416,11/19.0/2018,2000,g  4.0,10.0
# From MPC105242
124P/Mrkos,e,31.5150,0.3887,183.8315,3.318889,0.1630102,0.50365445,274.4495,11/19.0/2018,2000,g 13.5,2.8
# From MPC 94676
125P/Spacewatch,e,9.9890,153.1750,87.1738,3.124518,0.1784553,0.51347834,14.8223,11/19.0/2018,2000,g 13.0,6.0
# From MPC 66205
126P/IRAS,e,45.7981,357.8228,356.5041,5.642912,0.0735274,0.69538954,235.6821,11/19.0/2018,2000,g  6.0,8.0
# From MPC 84321
127P/Holt-Olmstead,e,14.3015,13.6509,6.6405,3.448580,0.1539018,0.35998659,150.3461,11/19.0/2018,2000,g 11.0,6.0
# From MPC 75719
128P/Shoemaker-Holt,e,4.3649,214.2944,210.5100,4.497166,0.1033465,0.32052619,70.0322,11/19.0/2018,2000,g  8.5,4.0
# From MPC 10028
129P/Shoemaker-Levy,e,3.4441,184.8910,308.6844,4.277829,0.1113958,0.08419986,194.9732,11/19.0/2018,2000,g 11.0,4.0
# From MPC 78188
130P/McNaught-Hughes,e,6.0653,70.2557,245.9258,3.383240,0.1583817,0.46096202,47.7039,11/19.0/2018,2000,g 10.0,6.0
# From MPC102101
131P/Mueller,e,7.3538,214.1921,179.0810,3.681159,0.1395492,0.34327751,350.7564,11/19.0/2018,2000,g 11.0,4.0
# From MPC 92985
132P/Helin-Roman-Alu,e,5.4029,174.6327,216.3187,3.866315,0.1296457,0.56854371,218.7790,11/19.0/2018,2000,g 11.0,6.0
# From MPC 94676
133P/Elst-Pizarro,e,1.3892,160.1360,131.4939,3.162206,0.1752746,0.15729474,10.3823,11/19.0/2018,2000,g 15.4,2.0
# From MPC 89012
134P/Kowal-Vavrova,e,4.3495,202.0828,18.7907,6.251454,0.0630569,0.58783080,103.5303,11/19.0/2018,2000,g 11.5,4.0
# From MPC 92985
135P/Shoemaker-Levy,e,6.0630,213.0751,22.1372,3.805094,0.1327872,0.29576390,196.1171,11/19.0/2018,2000,g  7.0,8.0
# From MPC101100
136P/Mueller,e,9.4190,137.4344,224.9931,4.199144,0.1145415,0.29130884,103.3706,11/19.0/2018,2000,g 11.0,4.0
# From MPC 75719
137P/Shoemaker-Levy,e,4.8538,233.0810,141.0157,4.518966,0.1025996,0.57286191,357.4975,11/19.0/2018,2000,g 11.0,4.0
# From MPC102101
138P/Shoemaker-Levy,e,10.0898,309.3333,95.6168,3.623254,0.1429078,0.53003823,336.4528,11/19.0/2018,2000,g 15.0,6.0
# From MPC108598
139P/Vaisala-Oterma,e,2.3333,242.2077,165.9942,4.528966,0.1022599,0.24618334,35.1349,11/19.0/2018,2000,g  9.5,4.0
# From MPC 92985
140P/Bowell-Skiff,e,3.8223,343.3671,172.9627,6.444017,0.0602517,0.69123262,72.2365,11/19.0/2018,2000,g 11.5,6.0
# From MPC105242
141P/Machholz,e,13.9966,241.8621,153.7394,3.049193,0.1851087,0.73866437,220.0195,11/19.0/2018,2000,g 12.0,12.0
# From MPC 71683
142P/Ge-Wang,e,12.2660,176.2798,174.2470,4.981342,0.0886512,0.49834426,279.5762,11/19.0/2018,2000,g  8.5,6.0
# From MPC 94676
143P/Kowal-Mrkos,e,4.6974,245.2995,320.7997,4.298157,0.1106065,0.41097782,21.6708,11/19.0/2018,2000,g 13.5,2.0
# From MPC104795
144P/Kushida,e,4.1669,245.4259,215.7028,3.842306,0.1308628,0.63377696,105.7184,11/19.0/2018,2000,g  8.5,8.0
# From MPC108598
145P/Shoemaker-Levy,e,11.2600,26.8045,10.3358,4.143839,0.1168422,0.54060447,51.8990,11/19.0/2018,2000,g 13.5,4.0
# From MPC 10028
146P/Shoemaker-LINEAR,e,23.0737,53.4523,316.9272,4.035958,0.1215582,0.64585796,106.0062,11/19.0/2018,2000,g 15.0,4.0
# From MPC 75720
147P/Kushida-Muramatsu,e,2.3756,93.4344,349.4160,3.838944,0.1310347,0.27422160,129.6133,11/19.0/2018,2000,g 14.0,4.0
# From MPC 89730
148P/Anderson-LINEAR,e,3.6873,89.7131,6.4723,3.665296,0.1404561,0.54123880,176.1466,11/19.0/2018,2000,g 16.0,2.0
# From MPC 75720
149P/Mueller,e,29.7711,145.2341,43.7881,4.316121,0.1099167,0.38983129,350.1116,11/19.0/2018,2000,g  8.0,8.0
# From MPC 75720
150P/LONEOS,e,18.5092,272.4111,245.6303,3.880874,0.1289169,0.54659861,109.2444,11/19.0/2018,2000,g 13.5,4.0
# From MPC 95214
151P/Helin,e,4.7224,143.1420,216.1252,5.769078,0.0711286,0.57202498,80.9519,11/19.0/2018,2000,g 10.0,6.0
# From MPC 79346
152P/Helin-Lawrence,e,9.8792,91.8687,163.6383,4.485595,0.1037466,0.30902156,240.6539,11/19.0/2018,2000,g 11.5,4.0
# From MPC 46101
153P/Ikeya-Zhang,e,27.7371,93.0744,35.1386,51.19376,0.0026908,0.98983606,0.0000,03/17.9217/2002,2000,g  7.0,4.0
# From MPC 87068
154P/Brewington,e,17.6230,342.9837,47.9268,4.804403,0.0935933,0.67472719,169.3142,11/19.0/2018,2000,g  2.5,12.0
# From MPC 75720
155P/Shoemaker,e,6.3958,97.2014,14.6861,6.588506,0.0582805,0.72657811,338.9476,11/19.0/2018,2000,g 10.0,4.8
# From MPC105242
156P/Russell-LINEAR,e,17.6631,36.2144,359.6851,3.462007,0.1530073,0.61869122,248.7353,11/19.0/2018,2000,g 15.5,2.0
# From MPC104795
157P/Tritton,e,7.4036,298.5664,149.9496,3.397154,0.1574096,0.60745645,139.8557,11/19.0/2018,2000,g 10.0,4.0
# From MPC 10028
158P/Kowal-LINEAR,e,7.8648,136.8044,243.4005,4.789464,0.0940316,0.02008623,204.4339,11/19.0/2018,2000,g  9.0,4.0
# From MPC 75721
159P/LONEOS,e,23.4621,55.0234,4.7418,5.862037,0.0694434,0.38159516,12.5224,11/19.0/2018,2000,g 10.0,4.0
# From MPC102101
160P/LINEAR,e,15.6118,333.4631,12.5611,3.774988,0.1343788,0.52675089,309.1730,11/19.0/2018,2000,g 15.5,2.0
# From MPC 75721
161P/Hartley-IRAS,e,95.6527,1.3278,46.9129,7.726335,0.0458927,0.83463557,225.4370,11/19.0/2018,2000,g  8.5,6.0
# From MPC105242
